start=new Date('2023-02-11T00:00:00.000Z').valueOf();
sats=[{"MEAN_MOTION_DOT":"0.00009074","MEAN_ELEMENT_THEORY":"SGP4","TLE_LINE1":"1 46043U 20055S   23041.70430189  .00009074  00000-0  62712-3 0  9992","ECCENTRICITY":"0.00017610","FILE":"3785071","REF_FRAME":"TEME","NORAD_CAT_ID":"46043","TIME_SYSTEM":"UTC","RA_OF_ASC_NODE":"127.8961","ARG_OF_PERICENTER":"91.7994","MEAN_MOTION_DDOT":"0.0000000000000","ELEMENT_SET_NO":"999","TLE_LINE2":"2 46043  53.0544 127.8961 0001761  91.7994 268.3197 15.06411079139629","EPHEMERIS_TYPE":"0","OBJECT_ID":"2020-055S","DECAY_DATE":null,"EPOCH":"2023-02-10T16:54:11.683296","MEAN_MOTION":"15.06411079","CLASSIFICATION_TYPE":"U","OBJECT_NAME":"STARLINK-1582","BSTAR":"0.00062712000000","SEMIMAJOR_AXIS":"6925.315","PERIAPSIS":"545.960","APOAPSIS":"548.399","LAUNCH_DATE":"2020-08-07","INCLINATION":"53.0544","SITE":"AFETR","RCS_SIZE":"LARGE","PERIOD":"95.591","MEAN_ANOMALY":"268.3197","OBJECT_TYPE":"PAYLOAD","GP_ID":"225067321","COUNTRY_CODE":"US","REV_AT_EPOCH":"13962","CENTER_NAME":"EARTH"},{"ECCENTRICITY":"0.00014500","TLE_LINE1":"1 46044U 20055T   23041.51905871  .00036826  00000-0  24773-2 0  9996","MEAN_ELEMENT_THEORY":"SGP4","MEAN_MOTION_DOT":"0.00036826","TLE_LINE2":"2 46044  53.0527 128.7207 0001450 115.2885 244.8255 15.06414238139602","ELEMENT_SET_NO":"999","MEAN_MOTION_DDOT":"0.0000000000000","RA_OF_ASC_NODE":"128.7207","ARG_OF_PERICENTER":"115.2885","FILE":"3785071","REF_FRAME":"TEME","NORAD_CAT_ID":"46044","TIME_SYSTEM":"UTC","APOAPSIS":"548.174","LAUNCH_DATE":"2020-08-07","PERIAPSIS":"546.166","SEMIMAJOR_AXIS":"6925.305","BSTAR":"0.00247730000000","OBJECT_NAME":"STARLINK-1584","CLASSIFICATION_TYPE":"U","EPOCH":"2023-02-10T12:27:26.672544","MEAN_MOTION":"15.06414238","DECAY_DATE":null,"EPHEMERIS_TYPE":"0","OBJECT_ID":"2020-055T","REV_AT_EPOCH":"13960","COUNTRY_CODE":"US","CENTER_NAME":"EARTH","OBJECT_TYPE":"PAYLOAD","GP_ID":"225067072","RCS_SIZE":"LARGE","PERIOD":"95.591","MEAN_ANOMALY":"244.8255","SITE":"AFETR","INCLINATION":"53.0527"},{"ELEMENT_SET_NO":"999","MEAN_MOTION_DDOT":"0.0000000000000","TLE_LINE2":"2 46045  53.0546 128.6855 0001291 100.9592 259.1542 15.06399773139582","NORAD_CAT_ID":"46045","TIME_SYSTEM":"UTC","REF_FRAME":"TEME","FILE":"3785071","ARG_OF_PERICENTER":"100.9592","RA_OF_ASC_NODE":"128.6855","ECCENTRICITY":"0.00012910","MEAN_MOTION_DOT":"0.00004034","MEAN_ELEMENT_THEORY":"SGP4","TLE_LINE1":"1 46045U 20055U   23041.53106275  .00004034  00000-0  28953-3 0  9991","CENTER_NAME":"EARTH","COUNTRY_CODE":"US","REV_AT_EPOCH":"13958","INCLINATION":"53.0546","SITE":"AFETR","RCS_SIZE":"LARGE","PERIOD":"95.592","MEAN_ANOMALY":"259.1542","GP_ID":"225068321","OBJECT_TYPE":"PAYLOAD","CLASSIFICATION_TYPE":"U","OBJECT_NAME":"STARLINK-1591","BSTAR":"0.00028953000000","SEMIMAJOR_AXIS":"6925.349","PERIAPSIS":"546.320","APOAPSIS":"548.108","LAUNCH_DATE":"2020-08-07","OBJECT_ID":"2020-055U","EPHEMERIS_TYPE":"0","DECAY_DATE":null,"EPOCH":"2023-02-10T12:44:43.821600","MEAN_MOTION":"15.06399773"},{"SITE":"AFETR","INCLINATION":"53.0546","RCS_SIZE":"LARGE","MEAN_ANOMALY":"279.1866","PERIOD":"95.592","OBJECT_TYPE":"PAYLOAD","GP_ID":"225068568","REV_AT_EPOCH":"13975","COUNTRY_CODE":"US","CENTER_NAME":"EARTH","EPHEMERIS_TYPE":"0","OBJECT_ID":"2020-055W","DECAY_DATE":null,"EPOCH":"2023-02-10T14:48:07.737408","MEAN_MOTION":"15.06408703","CLASSIFICATION_TYPE":"U","OBJECT_NAME":"STARLINK-1524","BSTAR":"0.00021491000000","SEMIMAJOR_AXIS":"6925.322","PERIAPSIS":"546.237","APOAPSIS":"548.137","LAUNCH_DATE":"2020-08-07","REF_FRAME":"TEME","FILE":"3785071","NORAD_CAT_ID":"46047","TIME_SYSTEM":"UTC","RA_OF_ASC_NODE":"118.2887","ARG_OF_PERICENTER":"80.9278","MEAN_MOTION_DDOT":"0.0000000000000","ELEMENT_SET_NO":"999","TLE_LINE2":"2 46047  53.0546 118.2887 0001372  80.9278 279.1866 15.06408703139756","MEAN_MOTION_DOT":"0.00002922","MEAN_ELEMENT_THEORY":"SGP4","TLE_LINE1":"1 46047U 20055W   23041.61675622  .00002922  00000-0  21491-3 0  9993","ECCENTRICITY":"0.00013720"},{"MEAN_MOTION_DOT":"0.00005571","TLE_LINE1":"1 46048U 20055X   23041.61307111  .00005571  00000-0  39252-3 0  9996","MEAN_ELEMENT_THEORY":"SGP4","ECCENTRICITY":"0.00012990","NORAD_CAT_ID":"46048","TIME_SYSTEM":"UTC","REF_FRAME":"TEME","FILE":"3785071","ARG_OF_PERICENTER":"90.7017","RA_OF_ASC_NODE":"118.3112","ELEMENT_SET_NO":"999","MEAN_MOTION_DDOT":"0.0000000000000","TLE_LINE2":"2 46048  53.0533 118.3112 0001299  90.7017 269.4120 15.06409891139735","OBJECT_ID":"2020-055X","EPHEMERIS_TYPE":"0","DECAY_DATE":null,"MEAN_MOTION":"15.06409891","EPOCH":"2023-02-10T14:42:49.343904","CLASSIFICATION_TYPE":"U","OBJECT_NAME":"STARLINK-1527","BSTAR":"0.00039252000000","SEMIMAJOR_AXIS":"6925.318","PERIAPSIS":"546.284","APOAPSIS":"548.083","LAUNCH_DATE":"2020-08-07","SITE":"AFETR","INCLINATION":"53.0533","PERIOD":"95.592","RCS_SIZE":"LARGE","MEAN_ANOMALY":"269.4120","GP_ID":"225066822","OBJECT_TYPE":"PAYLOAD","CENTER_NAME":"EARTH","COUNTRY_CODE":"US","REV_AT_EPOCH":"13973"},{"OBJECT_NAME":"STARLINK-1530","CLASSIFICATION_TYPE":"U","BSTAR":"0.00010629000000","SEMIMAJOR_AXIS":"6925.381","PERIAPSIS":"546.465","LAUNCH_DATE":"2020-08-07","APOAPSIS":"548.026","OBJECT_ID":"2020-055Y","EPHEMERIS_TYPE":"0","DECAY_DATE":null,"MEAN_MOTION":"15.06389490","EPOCH":"2023-02-10T09:50:54.403296","CENTER_NAME":"EARTH","COUNTRY_CODE":"US","REV_AT_EPOCH":"13973","INCLINATION":"53.0546","SITE":"AFETR","MEAN_ANOMALY":"274.1020","RCS_SIZE":"LARGE","PERIOD":"95.593","GP_ID":"225067570","OBJECT_TYPE":"PAYLOAD","ECCENTRICITY":"0.00011270","MEAN_MOTION_DOT":"0.00001302","TLE_LINE1":"1 46049U 20055Y   23041.41035189  .00001302  00000-0  10629-3 0  9993","MEAN_ELEMENT_THEORY":"SGP4","MEAN_MOTION_DDOT":"0.0000000000000","ELEMENT_SET_NO":"999","TLE_LINE2":"2 46049  53.0546 119.2170 0001127  86.0098 274.1020 15.06389490139735","NORAD_CAT_ID":"46049","TIME_SYSTEM":"UTC","REF_FRAME":"TEME","FILE":"3785071","ARG_OF_PERICENTER":"86.0098","RA_OF_ASC_NODE":"119.2170"},{"GP_ID":"225067822","OBJECT_TYPE":"PAYLOAD","MEAN_ANOMALY":"255.7706","RCS_SIZE":"LARGE","PERIOD":"95.593","INCLINATION":"53.0541","SITE":"AFETR","CENTER_NAME":"EARTH","COUNTRY_CODE":"US","REV_AT_EPOCH":"13974","MEAN_MOTION":"15.06392707","EPOCH":"2023-02-10T10:43:58.948320","DECAY_DATE":null,"OBJECT_ID":"2020-055AA","EPHEMERIS_TYPE":"0","LAUNCH_DATE":"2020-08-07","APOAPSIS":"547.945","PERIAPSIS":"546.527","BSTAR":"0.00007921700000","SEMIMAJOR_AXIS":"6925.371","OBJECT_NAME":"STARLINK-1540","CLASSIFICATION_TYPE":"U","ARG_OF_PERICENTER":"104.3397","RA_OF_ASC_NODE":"119.0605","NORAD_CAT_ID":"46051","TIME_SYSTEM":"UTC","FILE":"3785071","REF_FRAME":"TEME","TLE_LINE2":"2 46051  53.0541 119.0605 0001024 104.3397 255.7706 15.06392707139748","ELEMENT_SET_NO":"999","MEAN_MOTION_DDOT":"0.0000000000000","MEAN_ELEMENT_THEORY":"SGP4","TLE_LINE1":"1 46051U 20055AA  23041.44721005  .00000899  00000-0  79217-4 0  9997","MEAN_MOTION_DOT":"0.00000899","ECCENTRICITY":"0.00010240"},{"EPHEMERIS_TYPE":"0","OBJECT_ID":"2020-055AB","DECAY_DATE":null,"MEAN_MOTION":"15.06411828","EPOCH":"2023-02-10T21:31:30.467424","OBJECT_NAME":"STARLINK-1541","CLASSIFICATION_TYPE":"U","SEMIMAJOR_AXIS":"6925.312","BSTAR":"0.00019901000000","PERIAPSIS":"546.366","APOAPSIS":"547.989","LAUNCH_DATE":"2020-08-07","SITE":"AFETR","INCLINATION":"53.0525","RCS_SIZE":"LARGE","PERIOD":"95.591","MEAN_ANOMALY":"267.3900","OBJECT_TYPE":"PAYLOAD","GP_ID":"225068069","REV_AT_EPOCH":"13977","COUNTRY_CODE":"US","CENTER_NAME":"EARTH","MEAN_MOTION_DOT":"0.00002685","MEAN_ELEMENT_THEORY":"SGP4","TLE_LINE1":"1 46052U 20055AB  23041.89688041  .00002685  00000-0  19901-3 0  9997","ECCENTRICITY":"0.00011720","FILE":"3785071","REF_FRAME":"TEME","NORAD_CAT_ID":"46052","TIME_SYSTEM":"UTC","RA_OF_ASC_NODE":"117.0313","ARG_OF_PERICENTER":"92.7224","MEAN_MOTION_DDOT":"0.0000000000000","ELEMENT_SET_NO":"999","TLE_LINE2":"2 46052  53.0525 117.0313 0001172  92.7224 267.3900 15.06411828139772"},{"TLE_LINE2":"2 46053  53.0536 117.0273 0001227 115.4501 244.6615 15.06402971139806","MEAN_MOTION_DDOT":"0.0000000000000","ELEMENT_SET_NO":"999","FILE":"3785071","REF_FRAME":"TEME","TIME_SYSTEM":"UTC","NORAD_CAT_ID":"46053","RA_OF_ASC_NODE":"117.0273","ARG_OF_PERICENTER":"115.4501","ECCENTRICITY":"0.00012270","MEAN_MOTION_DOT":"-0.00000171","TLE_LINE1":"1 46053U 20055AC  23041.90057525 -.00000171  00000-0  73909-5 0  9996","MEAN_ELEMENT_THEORY":"SGP4","REV_AT_EPOCH":"13980","COUNTRY_CODE":"US","CENTER_NAME":"EARTH","MEAN_ANOMALY":"244.6615","RCS_SIZE":"LARGE","PERIOD":"95.592","SITE":"AFETR","INCLINATION":"53.0536","OBJECT_TYPE":"PAYLOAD","GP_ID":"225067322","SEMIMAJOR_AXIS":"6925.339","BSTAR":"0.00000739090000","OBJECT_NAME":"STARLINK-1543","CLASSIFICATION_TYPE":"U","APOAPSIS":"548.054","LAUNCH_DATE":"2020-08-07","PERIAPSIS":"546.355","EPHEMERIS_TYPE":"0","OBJECT_ID":"2020-055AC","MEAN_MOTION":"15.06402971","EPOCH":"2023-02-10T21:36:49.701600","DECAY_DATE":null},{"ECCENTRICITY":"0.00013230","TLE_LINE1":"1 46054U 20055AD  23041.50987035  .00002141  00000-0  16260-3 0  9994","MEAN_ELEMENT_THEORY":"SGP4","MEAN_MOTION_DOT":"0.00002141","MEAN_MOTION_DDOT":"0.0000000000000","ELEMENT_SET_NO":"999","TLE_LINE2":"2 46054  53.0520 118.7793 0001323 104.9078 255.2057 15.06394413139746","ARG_OF_PERICENTER":"104.9078","RA_OF_ASC_NODE":"118.7793","NORAD_CAT_ID":"46054","TIME_SYSTEM":"UTC","REF_FRAME":"TEME","FILE":"3785071","PERIAPSIS":"546.314","APOAPSIS":"548.147","LAUNCH_DATE":"2020-08-07","OBJECT_NAME":"STARLINK-1548","CLASSIFICATION_TYPE":"U","BSTAR":"0.00016260000000","SEMIMAJOR_AXIS":"6925.366","DECAY_DATE":null,"MEAN_MOTION":"15.06394413","EPOCH":"2023-02-10T12:14:12.798240","OBJECT_ID":"2020-055AD","EPHEMERIS_TYPE":"0","CENTER_NAME":"EARTH","COUNTRY_CODE":"US","REV_AT_EPOCH":"13974","GP_ID":"225067073","OBJECT_TYPE":"PAYLOAD","SITE":"AFETR","INCLINATION":"53.0520","RCS_SIZE":"LARGE","PERIOD":"95.592","MEAN_ANOMALY":"255.2057"}];
